#aV2007 12 26  0  0   .00000000      96 DD+AD WGS84 FIT  NGA
## 1459 259200.00000000   900.00000000 54460  .0000000000000
+   31     1  2  3  4  5  6  7  8  9 10 11 12 13 14 15 16 17
+         18 19 20 21 22 23 24 25 26 27 28 30 31 32  0  0  0
+          0  0  0  0  0  0  0  0  0  0  0  0  0  0  0  0  0
+          0  0  0  0  0  0  0  0  0  0  0  0  0  0  0  0  0
+          0  0  0  0  0  0  0  0  0  0  0  0  0  0  0  0  0
++         0  0  0  0  0  0  0  0  0  0  0  0  0  0  0  0  0
++         0  0  0  0  0  0  0  0  0  0  0  0  0  0  0  0  0
++         0  0  0  0  0  0  0  0  0  0  0  0  0  0  0  0  0
++         0  0  0  0  0  0  0  0  0  0  0  0  0  0  0  0  0
++         0  0  0  0  0  0  0  0  0  0  0  0  0  0  0  0  0
%c cc cc ccc ccc cccc cccc cccc cccc ccccc ccccc ccccc ccccc
%c cc cc ccc ccc cccc cccc cccc cccc ccccc ccccc ccccc ccccc
%f  0.0000000  0.000000000  0.00000000000  0.000000000000000
%f  0.0000000  0.000000000  0.00000000000  0.000000000000000
%i    0    0    0    0      0      0      0      0         0
%i    0    0    0    0      0      0      0      0         0
/*      NGA, ST. LOUIS,MO.                                  
/*   EPHEMERIS COMPUTED FROM  3 DAYS OF DATA                
/* CCCCCCCCCCCCCCCCCCCCCCCCCCCCCCCCCCCCCCCCCCCCCCCCCCCCCCCCC
/* CCCCCCCCCCCCCCCCCCCCCCCCCCCCCCCCCCCCCCCCCCCCCCCCCCCCCCCCC
*  2007 12 26 10 45   .00000000                                                 
P  1  15573.384855 -13009.460067 -16873.882157    174.949385                    
V  1  -5169.037119  21240.696781 -20944.515033       .024025                    
P  2 -21535.684189  12650.317950   8362.851462    161.310170                    
V  2 -11494.414394   -125.069912 -29088.773790       .029388                    
P  3  10991.564231 -21499.368065  10418.229217    163.704482                    
V  3   1765.397847  14169.949725  27098.006105       .054351                    
P  4 -26133.281756   5153.238974  -2673.236802    -42.265417                    
V  4   2351.254812  -3760.140324 -30898.262918      -.053719                    
P  5  14031.669508  20509.844881  -9833.424418    616.264778                    
V  5 -11226.954540  -5358.279586 -27802.599640       .189825                    
P  6   9328.064369  18045.647633  17276.886365    176.732703                    
V  6  -6522.450325  20801.727729 -18420.085422      -.135124                    
P  7  11798.400551  14471.106475  19215.012893       .831314                    
V  7  -5814.107825  23135.383772 -14125.081733       .366974                    
P  8 -24778.084835  -1115.901249  10029.680815   -134.779006                    
V  8  12002.586529  -4431.405797  28434.533441      -.014691                    
P  9  -1202.420901  16066.247524 -21703.278025    102.756561                    
V  9 -25018.656043   7569.857651   7371.336786       .017660                    
P 10  -8827.395369  12349.106553  21649.791146   -185.888167                    
V 10 -19803.228558 -19505.328237   3356.872576      -.123478                    
P 11  -2820.714901 -16934.959331 -20362.484417     26.763224                    
V 11  23695.777850 -10547.553413   5854.055838       .002000                    
P 12   8670.830867  21264.136646 -13317.777045   -352.497378                    
V 12 -13736.816146 -10288.621669 -25129.564862      -.010794                    
P 13  -8157.419577 -16360.867324  19175.005078    230.309040                    
V 13   7766.143119 -23229.030179 -16401.171319       .023638                    
P 14  15132.113610  -1189.936332 -21680.372651   -310.343267                    
V 14  -6978.384179  26820.725997  -6402.452935       .028053                    
P 15  -6212.169163  25832.328815     83.582122    -70.743778                    
V 15  -2823.287574   -744.687740  31667.174814       .002484                    
P 16  12928.940663  -8363.287456  21728.756744    130.119023                    
V 16  19209.615871  19520.555993  -3762.011177       .011337                    
P 17 -15568.784944     -6.001697 -21485.408900     45.744510                    
V 17   6397.041786 -26594.558151  -4768.673540      -.007632                    
P 18  19648.846101  17963.585467  -2440.063416   -216.708819                    
V 18    214.018628   4333.423146  31096.784668       .026245                    
P 19   7854.451315 -25275.721803   -392.675178     13.853951                    
V 19   3120.580154    374.459654  31768.378596       .017463                    
P 20 -11071.201839 -21427.714271 -11282.226865    123.787872                    
V 20  12147.398830   7759.919638 -26866.620615      -.007144                    
P 21  19106.402021   8045.222443  17076.264411     74.675898                    
V 21 -20130.079866   6988.251065  18813.097504      -.005815                    
P 22  21055.894177   7278.826954 -14329.947329    205.846445                    
V 22  10942.681663  15096.690804  23447.958405       .009125                    
P 23   -543.160453 -24625.357178   9560.920795    321.121778                    
V 23   5368.226820 -11324.925323 -28896.730911       .031389                    
P 24   6079.488041  14353.396953  21662.594015     57.154183                    
V 24 -26336.672680   6540.842489   3370.740837       .032824                    
P 25 -12934.258938 -10603.373507  20965.133530    494.733842                    
V 25  23723.579454 -10226.127182   9788.983524       .036596                    
P 26  -8705.944544  24629.386571   2165.615306    137.119441                    
V 26  -1245.789019  -3858.470425  32673.558772       .111848                    
P 27 -18716.725428  -6791.371985  18336.909157    156.667635                    
V 27  20217.595008  -8410.594964  18007.149817       .025523                    
P 28 -21514.872427 -10154.182636 -11806.838813    -12.669602                    
V 28  -9279.481062 -12501.055166  26508.821320      -.005336                    
P 30  17674.245849  19571.155379  -3923.929454     57.541192                    
V 30  -5448.600004   -764.365454 -30881.151922       .013294                    
P 31  25557.134891  -7391.734040    -54.025646     -2.895741                    
V 31    419.623283   2580.122064 -31810.427669      -.015349                    
P 32  17145.038144   -907.146796 -19757.300852    183.261282                    
V 32  16326.589449  20435.934753  13085.886700       .115042                    
EOF
